{"type": "FeatureCollection", "features": [ {"type": "Feature", "properties": {"norad_id": 66717, "name": "FLOCK 4H-14", "group": "last-30-days", "lat": -9.11658386335626, "lon": -110.00915201178651, "alt_km": 514.3194640912352, "timestamp": "2025-12-25T14:48:23.569476+00:00", "meta": {"OBJECT_NAME": "FLOCK 4H-14", "OBJECT_ID": "2025-276BD", "EPOCH": "2025-12-25T06:04:06.081888", "MEAN_MOTION": 15.18376637, "ECCENTRICITY": 0.00017683, "INCLINATION": 97.4409, "RA_OF_ASC_NODE": 70.8344, "ARG_OF_PERICENTER": 130.039, "MEAN_ANOMALY": 230.0999, "EPHEMERIS_TYPE": 0, "CLASSIFICATION_TYPE": "U", "NORAD_CAT_ID": 66717, "ELEMENT_SET_NO": 999, "REV_AT_EPOCH": 327, "BSTAR": 0.00033466858, "MEAN_MOTION_DOT": 6.813e-05, "MEAN_MOTION_DDOT": 0}, "tle": {"line1": "1 66717U 25276BD  25359.25284817  .00006813  00000+0  33467-3 0  9993", "line2": "2 66717  97.4409  70.8344 0001768 130.0390 230.0999 15.18376637  3277"}}, "geometry": {"type": "Point", "coordinates": [-110.00915201178651, -9.11658386335626]}}, {"type": "Feature", "properties": {"norad_id": 66718, "name": "FLOCK 4H-15", "group": "last-30-days", "lat": 73.53228176450386, "lon": 44.90512979121154, "alt_km": 509.5752503253507, "timestamp": "2025-12-25T14:48:23.569485+00:00", "meta": {"OBJECT_NAME": "FLOCK 4H-15", "OBJECT_ID": "2025-276BE", "EPOCH": "2025-12-25T03:23:43.143648", "MEAN_MOTION": 15.17134211, "ECCENTRICITY": 0.00030741, "INCLINATION": 97.4417, "RA_OF_ASC_NODE": 70.6812, "ARG_OF_PERICENTER": 256.5047, "MEAN_ANOMALY": 103.5844, "EPHEMERIS_TYPE": 0, "CLASSIFICATION_TYPE": "U", "NORAD_CAT_ID": 66718, "ELEMENT_SET_NO": 999, "REV_AT_EPOCH": 400, "BSTAR": 0.00051689803, "MEAN_MOTION_DOT": 0.00010194, "MEAN_MOTION_DDOT": 0}, "tle": {"line1": "1 66718U 25276BE  25359.14147157  .00010194  00000+0  51690-3 0  9992", "line2": "2 66718  97.4417  70.6812 0003074 256.5047 103.5844 15.17134211  4004"}}, "geometry": {"type": "Point", "coordinates": [44.90512979121154, 73.53228176450386]}}, {"type": "Feature", "properties": {"norad_id": 66719, "name": "FLOCK 4H-16", "group": "last-30-days", "lat": 81.35322649217639, "lon": 11.875529577503434, "alt_km": 508.7443384836424, "timestamp": "2025-12-25T14:48:23.569494+00:00", "meta": {"OBJECT_NAME": "FLOCK 4H-16", "OBJECT_ID": "2025-276BF", "EPOCH": "2025-12-25T08:00:01.000224", "MEAN_MOTION": 15.17275496, "ECCENTRICITY": 0.00032585, "INCLINATION": 97.4432, "RA_OF_ASC_NODE": 70.8796, "ARG_OF_PERICENTER": 240.1784, "MEAN_ANOMALY": 97.396, "EPHEMERIS_TYPE": 0, "CLASSIFICATION_TYPE": "U", "NORAD_CAT_ID": 66719, "ELEMENT_SET_NO": 999, "REV_AT_EPOCH": 345, "BSTAR": -0.0026363765, "MEAN_MOTION_DOT": -0.00052161, "MEAN_MOTION_DDOT": 0}, "tle": {"line1": "1 66719U 25276BF  25359.33334491 -.00052161  00000+0 -26364-2 0  9994", "line2": "2 66719  97.4432  70.8796 0003258 240.1784  97.3960 15.17275496  3454"}}, "geometry": {"type": "Point", "coordinates": [11.875529577503434, 81.35322649217639]}}, {"type": "Feature", "properties": {"norad_id": 66720, "name": "FLOCK 4H-17", "group": "last-30-days", "lat": 15.407240254768954, "lon": -106.74070214874948, "alt_km": 510.50402946059603, "timestamp": "2025-12-25T14:48:23.569506+00:00", "meta": {"OBJECT_NAME": "FLOCK 4H-17", "OBJECT_ID": "2025-276BG", "EPOCH": "2025-12-25T06:10:30.840096", "MEAN_MOTION": 15.18097024, "ECCENTRICITY": 0.00029098, "INCLINATION": 97.4436, "RA_OF_ASC_NODE": 70.8407, "ARG_OF_PERICENTER": 180.339, "MEAN_ANOMALY": 179.7842, "EPHEMERIS_TYPE": 0, "CLASSIFICATION_TYPE": "U", "NORAD_CAT_ID": 66720, "ELEMENT_SET_NO": 999, "REV_AT_EPOCH": 402, "BSTAR": 0.0005184253, "MEAN_MOTION_DOT": 0.00010511, "MEAN_MOTION_DDOT": 0}, "tle": {"line1": "1 66720U 25276BG  25359.25730139  .00010511  00000+0  51843-3 0  9998", "line2": "2 66720  97.4436  70.8407 0002909 180.3390 179.7842 15.18097024  4027"}}, "geometry": {"type": "Point", "coordinates": [-106.74070214874948, 15.407240254768954]}}, {"type": "Feature", "properties": {"norad_id": 66721, "name": "FLOCK 4H-18", "group": "last-30-days", "lat": 76.40624702021009, "lon": 38.43286486704265, "alt_km": 508.82742404986675, "timestamp": "2025-12-25T14:48:23.569515+00:00", "meta": {"OBJECT_NAME": "FLOCK 4H-18", "OBJECT_ID": "2025-276BH", "EPOCH": "2025-12-25T03:22:51.760704", "MEAN_MOTION": 15.17168057, "ECCENTRICITY": 0.00024414, "INCLINATION": 97.4377, "RA_OF_ASC_NODE": 70.6661, "ARG_OF_PERICENTER": 271.3614, "MEAN_ANOMALY": 88.734, "EPHEMERIS_TYPE": 0, "CLASSIFICATION_TYPE": "U", "NORAD_CAT_ID": 66721, "ELEMENT_SET_NO": 999, "REV_AT_EPOCH": 400, "BSTAR": 0.00051903977, "MEAN_MOTION_DOT": 0.00010246, "MEAN_MOTION_DDOT": 0}, "tle": {"line1": "1 66721U 25276BH  25359.14087686  .00010246  00000+0  51904-3 0  9992", "line2": "2 66721  97.4377  70.6661 0002441 271.3614  88.7340 15.17168057  4007"}}, "geometry": {"type": "Point", "coordinates": [38.43286486704265, 76.40624702021009]}}, {"type": "Feature", "properties": {"norad_id": 66722, "name": "FLOCK 4H-19", "group": "last-30-days", "lat": -1.7920727198618787, "lon": -109.05540700243814, "alt_km": 512.8077484467476, "timestamp": "2025-12-25T14:48:23.569524+00:00", "meta": {"OBJECT_NAME": "FLOCK 4H-19", "OBJECT_ID": "2025-276BJ", "EPOCH": "2025-12-25T06:06:01.458720", "MEAN_MOTION": 15.18302236, "ECCENTRICITY": 0.00025742, "INCLINATION": 97.4382, "RA_OF_ASC_NODE": 70.8221, "ARG_OF_PERICENTER": 147.422, "MEAN_ANOMALY": 212.7173, "EPHEMERIS_TYPE": 0, "CLASSIFICATION_TYPE": "U", "NORAD_CAT_ID": 66722, "ELEMENT_SET_NO": 999, "REV_AT_EPOCH": 331, "BSTAR": 0.0008102627, "MEAN_MOTION_DOT": 0.00016576, "MEAN_MOTION_DDOT": 0}, "tle": {"line1": "1 66722U 25276BJ  25359.25418355  .00016576  00000+0  81026-3 0  9996", "line2": "2 66722  97.4382  70.8221 0002574 147.4220 212.7173 15.18302236  3317"}}, "geometry": {"type": "Point", "coordinates": [-109.05540700243814, -1.7920727198618787]}}, {"type": "Feature", "properties": {"norad_id": 66723, "name": "FLOCK 4H-20", "group": "last-30-days", "lat": -5.695900174445166, "lon": -109.55170335058611, "alt_km": 512.7097373166398, "timestamp": "2025-12-25T14:48:23.569532+00:00", "meta": {"OBJECT_NAME": "FLOCK 4H-20", "OBJECT_ID": "2025-276BK", "EPOCH": "2025-12-25T06:04:59.897856", "MEAN_MOTION": 15.18344359, "ECCENTRICITY": 0.00030383, "INCLINATION": 97.4418, "RA_OF_ASC_NODE": 70.8377, "ARG_OF_PERICENTER": 162.4257, "MEAN_ANOMALY": 197.7083, "EPHEMERIS_TYPE": 0, "CLASSIFICATION_TYPE": "U", "NORAD_CAT_ID": 66723, "ELEMENT_SET_NO": 999, "REV_AT_EPOCH": 327, "BSTAR": 0.00057205612, "MEAN_MOTION_DOT": 0.0001169, "MEAN_MOTION_DDOT": 0}, "tle": {"line1": "1 66723U 25276BK  25359.25347104  .00011690  00000+0  57206-3 0  9995", "line2": "2 66723  97.4418  70.8377 0003038 162.4257 197.7083 15.18344359  3272"}}, "geometry": {"type": "Point", "coordinates": [-109.55170335058611, -5.695900174445166]}}, {"type": "Feature", "properties": {"norad_id": 66724, "name": "FLOCK 4H-21", "group": "last-30-days", "lat": -9.135399232198354, "lon": -110.0224766282795, "alt_km": 513.159038370929, "timestamp": "2025-12-25T14:48:23.569541+00:00", "meta": {"OBJECT_NAME": "FLOCK 4H-21", "OBJECT_ID": "2025-276BL", "EPOCH": "2025-12-25T06:04:06.048192", "MEAN_MOTION": 15.18390959, "ECCENTRICITY": 0.00029253, "INCLINATION": 97.4384, "RA_OF_ASC_NODE": 70.8233, "ARG_OF_PERICENTER": 158.7136, "MEAN_ANOMALY": 201.422, "EPHEMERIS_TYPE": 0, "CLASSIFICATION_TYPE": "U", "NORAD_CAT_ID": 66724, "ELEMENT_SET_NO": 999, "REV_AT_EPOCH": 327, "BSTAR": 0.00048185892, "MEAN_MOTION_DOT": 9.847e-05, "MEAN_MOTION_DDOT": 0}, "tle": {"line1": "1 66724U 25276BL  25359.25284778  .00009847  00000+0  48186-3 0  9991", "line2": "2 66724  97.4384  70.8233 0002925 158.7136 201.4220 15.18390959  3277"}}, "geometry": {"type": "Point", "coordinates": [-110.0224766282795, -9.135399232198354]}}, {"type": "Feature", "properties": {"norad_id": 66725, "name": "FLOCK 4H-22", "group": "last-30-days", "lat": 70.97830920422311, "lon": -86.59240587784106, "alt_km": 507.47986982356997, "timestamp": "2025-12-25T14:48:23.569550+00:00", "meta": {"OBJECT_NAME": "FLOCK 4H-22", "OBJECT_ID": "2025-276BM", "EPOCH": "2025-12-25T04:50:20.936544", "MEAN_MOTION": 15.1752068, "ECCENTRICITY": 0.00014816, "INCLINATION": 97.4372, "RA_OF_ASC_NODE": 70.7338, "ARG_OF_PERICENTER": 276.7334, "MEAN_ANOMALY": 83.3732, "EPHEMERIS_TYPE": 0, "CLASSIFICATION_TYPE": "U", "NORAD_CAT_ID": 66725, "ELEMENT_SET_NO": 999, "REV_AT_EPOCH": 401, "BSTAR": 0.00033404846, "MEAN_MOTION_DOT": 6.634e-05, "MEAN_MOTION_DDOT": 0}, "tle": {"line1": "1 66725U 25276BM  25359.20163121  .00006634  00000+0  33405-3 0  9994", "line2": "2 66725  97.4372  70.7338 0001481 276.7334  83.3732 15.17520680  4010"}}, "geometry": {"type": "Point", "coordinates": [-86.59240587784106, 70.97830920422311]}}, {"type": "Feature", "properties": {"norad_id": 66726, "name": "FLOCK 4H-23", "group": "last-30-days", "lat": 81.18717971586321, "lon": 13.668181596751264, "alt_km": 508.6481862684859, "timestamp": "2025-12-25T14:48:23.569560+00:00", "meta": {"OBJECT_NAME": "FLOCK 4H-23", "OBJECT_ID": "2025-276BN", "EPOCH": "2025-12-25T03:21:07.958016", "MEAN_MOTION": 15.17251897, "ECCENTRICITY": 0.00034664, "INCLINATION": 97.4437, "RA_OF_ASC_NODE": 70.6902, "ARG_OF_PERICENTER": 231.7792, "MEAN_ANOMALY": 128.313, "EPHEMERIS_TYPE": 0, "CLASSIFICATION_TYPE": "U", "NORAD_CAT_ID": 66726, "ELEMENT_SET_NO": 999, "REV_AT_EPOCH": 400, "BSTAR": 0.00059486137, "MEAN_MOTION_DOT": 0.00011784, "MEAN_MOTION_DDOT": 0}, "tle": {"line1": "1 66726U 25276BN  25359.13967544  .00011784  00000+0  59486-3 0  9997", "line2": "2 66726  97.4437  70.6902 0003466 231.7792 128.3130 15.17251897  4005"}}, "geometry": {"type": "Point", "coordinates": [13.668181596751264, 81.18717971586321]}}]}